H1 CPF 01  gfz 2022 05 10 12  6302 tandemx   
H2 1003001  6202 36605    2022 05 10 12 59 42 2022 05 15 00 00 42   120 1 1  0 0 0
H9
10 0 59711   6462.000000  0   -3178594.761  -5785853.842   1960966.503
10 0 59711   6582.000000  0   -3181717.870  -5421843.853   2808188.448
10 0 59711   6702.000000  0   -3122005.038  -4963515.744   3605952.359
10 0 59711   6822.000000  0   -2998936.799  -4420000.142   4340217.263
10 0 59711   6942.000000  0   -2813280.130  -3801922.016   4998072.880
10 0 59711   7062.000000  0   -2567096.427  -3121184.981   5567967.215
10 0 59711   7182.000000  0   -2263721.617  -2390734.413   6039906.800
10 0 59711   7302.000000  0   -1907720.530  -1624306.207   6405627.336
10 0 59711   7422.000000  0   -1504815.931   -836164.508   6658734.248
10 0 59711   7542.000000  0   -1061793.751    -40832.256   6794807.526
10 0 59711   7662.000000  0    -586388.572    747175.815   6811472.385
10 0 59711   7782.000000  0     -87148.779   1513617.258   6708439.168
10 0 59711   7902.000000  0     426717.138   2244779.289   6487508.293
10 0 59711   8022.000000  0     945510.201   2927724.128   6152540.178
10 0 59711   8142.000000  0    1459223.006   3550518.452   5709392.024
10 0 59711   8262.000000  0    1957731.790   4102445.207   5165821.256
10 0 59711   8382.000000  0    2430996.199   4574193.454   4531355.963
10 0 59711   8502.000000  0    2869262.724   4958021.613   3817132.033
10 0 59711   8622.000000  0    3263265.890   5247890.309   3035701.829
10 0 59711   8742.000000  0    3604426.564   5439566.642   2200815.749
10 0 59711   8862.000000  0    3885040.125   5530690.144   1327174.662
10 0 59711   8982.000000  0    4098447.176   5520800.702    430166.379
10 0 59711   9102.000000  0    4239186.084   5411329.054   -474414.282
10 0 59711   9222.000000  0    4303121.799   5205546.563  -1370651.963
10 0 59711   9342.000000  0    4287548.659   4908479.585  -2242798.560
10 0 59711   9462.000000  0    4191263.616   4526789.120  -3075556.871
10 0 59711   9582.000000  0    4014608.082   4068619.204  -3854353.861
10 0 59711   9702.000000  0    3759478.101   3543417.742  -4565596.005
10 0 59711   9822.000000  0    3429304.768   2961736.387  -5196903.364
10 0 59711   9942.000000  0    3029003.821   2335013.429  -5737319.023
10 0 59711  10062.000000  0    2564896.955   1675345.294  -6177489.809
10 0 59711  10182.000000  0    2044607.089    995251.468  -6509816.873
10 0 59711  10302.000000  0    1476930.476    307438.474  -6728574.200
10 0 59711  10422.000000  0     871688.769   -375433.137  -6829998.094
10 0 59711  10542.000000  0     239559.901  -1040977.533  -6812345.402
10 0 59711  10662.000000  0    -408106.371  -1677302.320  -6675918.227
10 0 59711  10782.000000  0   -1059486.390  -2273214.701  -6423059.860
10 0 59711  10902.000000  0   -1702493.487  -2818414.998  -6058119.893
10 0 59711  11022.000000  0   -2324996.884  -3303672.870  -5587386.733
10 0 59711  11142.000000  0   -2915046.428  -3720984.244  -5018990.885
10 0 59711  11262.000000  0   -3461101.611  -4063707.851  -4362776.812
10 0 59711  11382.000000  0   -3952258.668  -4326676.485  -3630142.597
10 0 59711  11502.000000  0   -4378471.155  -4506281.106  -2833851.048
10 0 59711  11622.000000  0   -4730760.029  -4600525.715  -1987813.073
10 0 59711  11742.000000  0   -5001407.431  -4609050.597  -1106846.703
10 0 59711  11862.000000  0   -5184129.129  -4533123.126   -206415.943
10 0 59711  11982.000000  0   -5274221.228  -4375596.093    697645.625
10 0 59711  12102.000000  0   -5268676.362  -4140833.399   1589421.834
10 0 59711  12222.000000  0   -5166265.182  -3834603.908   2453203.969
10 0 59711  12342.000000  0   -4967581.588  -3463946.880   3273776.226
10 0 59711  12462.000000  0   -4675050.971  -3037013.159   4036690.788
10 0 59711  12582.000000  0   -4292901.033  -2562885.577   4728527.727
10 0 59711  12702.000000  0   -3827095.663  -2051383.273   5337132.016
10 0 59711  12822.000000  0   -3285236.396  -1512856.711   5851824.683
10 0 59711  12942.000000  0   -2676432.885   -957976.834   6263587.660
10 0 59711  13062.000000  0   -2011143.210   -397521.198   6565217.716
10 0 59711  13182.000000  0   -1300988.368    157836.787   6751445.372
10 0 59711  13302.000000  0    -558546.864    697729.437   6819020.249
10 0 59711  13422.000000  0     202868.222   1212287.322   6766764.448
10 0 59711  13542.000000  0     969447.425   1692319.400   6595592.014
10 0 59711  13662.000000  0    1727134.910   2129477.537   6308493.555
10 0 59711  13782.000000  0    2461885.330   2516401.658   5910486.822
10 0 59711  13902.000000  0    3159924.610   2846845.031   5408535.208
10 0 59711  14022.000000  0    3808011.465   3115777.759   4811432.004
10 0 59711  14142.000000  0    4393691.745   3319465.732   4129650.865
10 0 59711  14262.000000  0    4905543.100   3455523.530   3375168.402
10 0 59711  14382.000000  0    5333407.409   3522941.333   2561254.728
10 0 59711  14502.000000  0    5668598.127   3522081.217   1702237.724
10 0 59711  14622.000000  0    5904082.116   3454646.547    813246.937
10 0 59711  14742.000000  0    6034630.354   3323623.139    -90060.514
10 0 59711  14862.000000  0    6056932.254   3133193.015   -991784.587
10 0 59711  14982.000000  0    5969671.770   2888623.506  -1876070.798
10 0 59711  15102.000000  0    5773562.425   2596135.936  -2727396.002
10 0 59711  15222.000000  0    5471342.381   2262756.828  -3530846.471
10 0 59711  15342.000000  0    5067729.773   1896154.398  -4272381.670
10 0 59711  15462.000000  0    4569338.643   1504465.199  -4939079.498
10 0 59711  15582.000000  0    3984558.521   1096115.915  -5519355.133
10 0 59711  15702.000000  0    3323403.987    679645.251  -6003153.480
10 0 59711  15822.000000  0    2597335.292    263528.735  -6382113.262
10 0 59711  15942.000000  0    1819054.894   -143989.665  -6649699.418
10 0 59711  16062.000000  0    1002285.430   -535056.320  -6801305.180
10 0 59711  16182.000000  0     161529.655   -902355.353  -6834323.984
10 0 59711  16302.000000  0    -688182.623  -1239241.265  -6748187.617
10 0 59711  16422.000000  0   -1531555.919  -1539855.567  -6544375.156
10 0 59711  16542.000000  0   -2353298.303  -1799226.702  -6226390.866
10 0 59711  16662.000000  0   -3138392.407  -2013351.012  -5799709.506
10 0 59711  16782.000000  0   -3872365.150  -2179254.564  -5271692.968
10 0 59711  16902.000000  0   -4541555.507  -2295035.111  -4651475.553
10 0 59711  17022.000000  0   -5133372.443  -2359882.085  -3949816.894
10 0 59711  17142.000000  0   -5636538.574  -2374074.684  -3178925.521
10 0 59711  17262.000000  0   -6041314.733  -2338957.273  -2352253.383
10 0 59711  17382.000000  0   -6339698.939  -2256892.177  -1484264.653
10 0 59711  17502.000000  0   -6525595.306  -2131190.899   -590182.504
10 0 59711  17622.000000  0   -6594947.301  -1966024.770    314281.836
10 0 59711  17742.000000  0   -6545831.907  -1766316.922   1213212.055
10 0 59711  17862.000000  0   -6378510.930  -1537618.062   2090775.989
10 0 59711  17982.000000  0   -6095437.316  -1285969.956   2931513.844
10 0 59711  18102.000000  0   -5701217.669  -1017759.504   3720618.453
10 0 59711  18222.000000  0   -5202531.079   -739566.938   4444203.414
10 0 59711  18342.000000  0   -4608005.270   -458012.858   5089549.652
10 0 59711  18462.000000  0   -3928058.615   -179607.966   5645327.627
10 0 59711  18582.000000  0   -3174708.925     89391.821   6101794.394
10 0 59711  18702.000000  0   -2361352.118    343121.289   6450959.659
10 0 59711  18822.000000  0   -1502517.681    576229.054   6686719.670
10 0 59711  18942.000000  0    -613604.969    783987.059   6804958.077
10 0 59711  19062.000000  0     289393.997    962384.476   6803612.467
10 0 59711  19182.000000  0    1190181.466   1108204.049   6682707.764
10 0 59711  19302.000000  0    2072447.151   1219080.408   6444355.929
10 0 59711  19422.000000  0    2920162.737   1293538.558   6092721.398
10 0 59711  19542.000000  0    3717874.371   1331012.300   5633953.486
10 0 59711  19662.000000  0    4450987.383   1331842.219   5076083.474
10 0 59711  19782.000000  0    5106037.308   1297253.759   4428891.008
10 0 59711  19902.000000  0    5670946.584   1229315.515   3703739.017
10 0 59711  20022.000000  0    6135257.461   1130878.670   2913375.306
10 0 59711  20142.000000  0    6490334.216   1005497.474   2071707.983
10 0 59711  20262.000000  0    6729533.381    857334.070   1193558.437
10 0 59711  20382.000000  0    6848335.202    691049.264    294393.803
10 0 59711  20502.000000  0    6844433.501    511681.757   -609952.954
10 0 59711  20622.000000  0    6717780.517    324519.061  -1503571.714
10 0 59711  20742.000000  0    6470585.079    134963.678  -2370763.464
10 0 59711  20862.000000  0    6107266.380    -51602.641  -3196322.208
10 0 59711  20982.000000  0    5634364.737   -229952.318  -3965805.581
10 0 59711  21102.000000  0    5060410.967   -395139.870  -4665788.267
10 0 59711  21222.000000  0    4395758.807   -542620.633  -5284091.874
10 0 59711  21342.000000  0    3652387.485   -668358.357  -5809989.065
10 0 59711  21462.000000  0    2843677.432   -768920.369  -6234380.681
10 0 59711  21582.000000  0    1984163.274   -841557.022  -6549941.937
10 0 59711  21702.000000  0    1089271.431   -884264.328  -6751236.800
10 0 59711  21822.000000  0     175045.905   -895830.365  -6834802.595
10 0 59711  21942.000000  0    -742134.752   -875862.720  -6799202.637
10 0 59711  22062.000000  0   -1645843.471   -824798.177  -6645048.183
10 0 59711  22182.000000  0   -2519892.518   -743893.683  -6374989.101
10 0 59711  22302.000000  0   -3348616.508   -635199.217  -5993671.925
10 0 59711  22422.000000  0   -4117148.080   -501512.944  -5507669.810
10 0 59711  22542.000000  0   -4811685.483   -346318.847  -4925380.506
10 0 59711  22662.000000  0   -5419743.520   -173708.088  -4256892.521
10 0 59711  22782.000000  0   -5930385.993     11714.460  -3513822.279
10 0 59711  22902.000000  0   -6334433.849    204937.938  -2709120.512
99
